{
  "type": "FeatureCollection",
  "features": [
    {
      "type": "Feature",
      "properties": {
        "norad_id": 38755,
        "name": "SPOT 6",
        "group": "resource",
        "lat": 39.96026526818018,
        "lon": 51.90040784423929,
        "alt_km": 694.0468275078056,
        "timestamp": "2025-12-20T03:42:47.049008+00:00",
        "meta_object_name": "SPOT 6",
        "meta_object_id": "2012-047A",
        "meta_epoch": "2025-12-19T19:17:45.389184",
        "meta_mean_motion": 14.5853788,
        "meta_eccentricity": 0.0001317,
        "meta_inclination": 98.157,
        "meta_ra_of_asc_node": 58.4589,
        "meta_arg_of_pericenter": 78.0781,
        "meta_mean_anomaly": 282.0566,
        "meta_ephemeris_type": 0,
        "meta_classification_type": "U",
        "meta_norad_cat_id": 38755,
        "meta_element_set_no": 999,
        "meta_rev_at_epoch": 70690,
        "meta_bstar": 4.6735e-05,
        "meta_mean_motion_dot": 1.72e-06,
        "meta_mean_motion_ddot": 0,
        "tle_line1": "1 38755U 12047A   25353.80399756  .00000172  00000+0  46735-4 0  9995",
        "tle_line2": "2 38755  98.1570  58.4589 0001317  78.0781 282.0566 14.58537880706902"
      },
      "geometry": {
        "type": "Point",
        "coordinates": [
          51.90040784423929,
          39.96026526818018
        ]
      }
    },
    {
      "type": "Feature",
      "properties": {
        "norad_id": 39019,
        "name": "PLEIADES 1B",
        "group": "resource",
        "lat": -60.43060310132074,
        "lon": 81.37436292376601,
        "alt_km": 705.653581845334,
        "timestamp": "2025-12-20T03:42:47.049018+00:00",
        "meta_object_name": "PLEIADES 1B",
        "meta_object_id": "2012-068A",
        "meta_epoch": "2025-12-19T19:45:44.586144",
        "meta_mean_motion": 14.58558658,
        "meta_eccentricity": 0.0001168,
        "meta_inclination": 98.1793,
        "meta_ra_of_asc_node": 66.3637,
        "meta_arg_of_pericenter": 84.8595,
        "meta_mean_anomaly": 275.2738,
        "meta_ephemeris_type": 0,
        "meta_classification_type": "U",
        "meta_norad_cat_id": 39019,
        "meta_element_set_no": 999,
        "meta_rev_at_epoch": 69470,
        "meta_bstar": 5.3428e-05,
        "meta_mean_motion_dot": 2.03e-06,
        "meta_mean_motion_ddot": 0,
        "tle_line1": "1 39019U 12068A   25353.82343271  .00000203  00000+0  53428-4 0  9997",
        "tle_line2": "2 39019  98.1793  66.3637 0001168  84.8595 275.2738 14.58558658694702"
      },
      "geometry": {
        "type": "Point",
        "coordinates": [
          81.37436292376601,
          -60.43060310132074
        ]
      }
    },
    {
      "type": "Feature",
      "properties": {
        "norad_id": 39030,
        "name": "GOKTURK 2",
        "group": "resource",
        "lat": -59.054585930914584,
        "lon": 2.4211876456567705,
        "alt_km": 651.9326840662097,
        "timestamp": "2025-12-20T03:42:47.049029+00:00",
        "meta_object_name": "GOKTURK 2",
        "meta_object_id": "2012-073A",
        "meta_epoch": "2025-12-19T20:07:04.852704",
        "meta_mean_motion": 14.75299795,
        "meta_eccentricity": 0.0001252,
        "meta_inclination": 97.6888,
        "meta_ra_of_asc_node": 195.1424,
        "meta_arg_of_pericenter": 108.2263,
        "meta_mean_anomaly": 251.9083,
        "meta_ephemeris_type": 0,
        "meta_classification_type": "U",
        "meta_norad_cat_id": 39030,
        "meta_element_set_no": 999,
        "meta_rev_at_epoch": 69806,
        "meta_bstar": 4.4769e-05,
        "meta_mean_motion_dot": 2.56e-06,
        "meta_mean_motion_ddot": 0,
        "tle_line1": "1 39030U 12073A   25353.83825061  .00000256  00000+0  44769-4 0  9995",
        "tle_line2": "2 39030  97.6888 195.1424 0001252 108.2263 251.9083 14.75299795698066"
      },
      "geometry": {
        "type": "Point",
        "coordinates": [
          2.4211876456567705,
          -59.054585930914584
        ]
      }
    },
    {
      "type": "Feature",
      "properties": {
        "norad_id": 39084,
        "name": "LANDSAT 8",
        "group": "resource",
        "lat": 68.57507420594784,
        "lon": 40.54034764276709,
        "alt_km": 695.1243487708625,
        "timestamp": "2025-12-20T03:42:47.049040+00:00",
        "meta_object_name": "LANDSAT 8",
        "meta_object_id": "2013-008A",
        "meta_epoch": "2025-12-19T19:09:07.269984",
        "meta_mean_motion": 14.57109337,
        "meta_eccentricity": 0.000108,
        "meta_inclination": 98.2064,
        "meta_ra_of_asc_node": 61.767,
        "meta_arg_of_pericenter": 90.1662,
        "meta_mean_anomaly": 269.966,
        "meta_ephemeris_type": 0,
        "meta_classification_type": "U",
        "meta_norad_cat_id": 39084,
        "meta_element_set_no": 999,
        "meta_rev_at_epoch": 67177,
        "meta_bstar": 7.4028e-05,
        "meta_mean_motion_dot": 2.88e-06,
        "meta_mean_motion_ddot": 0,
        "tle_line1": "1 39084U 13008A   25353.79800081  .00000288  00000+0  74028-4 0  9999",
        "tle_line2": "2 39084  98.2064  61.7670 0001080  90.1662 269.9660 14.57109337671771"
      },
      "geometry": {
        "type": "Point",
        "coordinates": [
          40.54034764276709,
          68.57507420594784
        ]
      }
    },
    {
      "type": "Feature",
      "properties": {
        "norad_id": 39086,
        "name": "SARAL",
        "group": "resource",
        "lat": 52.25770050224843,
        "lon": 9.195137516668442,
        "alt_km": 775.841756352509,
        "timestamp": "2025-12-20T03:42:47.049050+00:00",
        "meta_object_name": "SARAL",
        "meta_object_id": "2013-009A",
        "meta_epoch": "2025-12-19T18:44:35.177280",
        "meta_mean_motion": 14.32759303,
        "meta_eccentricity": 0.0002955,
        "meta_inclination": 98.5502,
        "meta_ra_of_asc_node": 177.6194,
        "meta_arg_of_pericenter": 95.2625,
        "meta_mean_anomaly": 264.8896,
        "meta_ephemeris_type": 0,
        "meta_classification_type": "U",
        "meta_norad_cat_id": 39086,
        "meta_element_set_no": 999,
        "meta_rev_at_epoch": 66991,
        "meta_bstar": 4.6766e-05,
        "meta_mean_motion_dot": 8.4e-07,
        "meta_mean_motion_ddot": 0,
        "tle_line1": "1 39086U 13009A   25353.78096270  .00000084  00000+0  46766-4 0  9990",
        "tle_line2": "2 39086  98.5502 177.6194 0002955  95.2625 264.8896 14.32759303669913"
      },
      "geometry": {
        "type": "Point",
        "coordinates": [
          9.195137516668442,
          52.25770050224843
        ]
      }
    },
    {
      "type": "Feature",
      "properties": {
        "norad_id": 39150,
        "name": "GAOFEN-1",
        "group": "resource",
        "lat": -9.228914183524568,
        "lon": 65.98139476513359,
        "alt_km": 652.7521034732026,
        "timestamp": "2025-12-20T03:42:47.049061+00:00",
        "meta_object_name": "GAOFEN-1",
        "meta_object_id": "2013-018A",
        "meta_epoch": "2025-12-19T21:14:57.842016",
        "meta_mean_motion": 14.7649043,
        "meta_eccentricity": 0.0018347,
        "meta_inclination": 97.9325,
        "meta_ra_of_asc_node": 64.4187,
        "meta_arg_of_pericenter": 121.2551,
        "meta_mean_anomaly": 239.0459,
        "meta_ephemeris_type": 0,
        "meta_classification_type": "U",
        "meta_norad_cat_id": 39150,
        "meta_element_set_no": 999,
        "meta_rev_at_epoch": 68178,
        "meta_bstar": 2.9794e-05,
        "meta_mean_motion_dot": 1.57e-06,
        "meta_mean_motion_ddot": 0,
        "tle_line1": "1 39150U 13018A   25353.88539169  .00000157  00000+0  29794-4 0  9995",
        "tle_line2": "2 39150  97.9325  64.4187 0018347 121.2551 239.0459 14.76490430681785"
      },
      "geometry": {
        "type": "Point",
        "coordinates": [
          65.98139476513359,
          -9.228914183524568
        ]
      }
    },
    {
      "type": "Feature",
      "properties": {
        "norad_id": 39160,
        "name": "VNREDSAT 1",
        "group": "resource",
        "lat": 73.77164684241565,
        "lon": -102.18899246272018,
        "alt_km": 669.4481235315043,
        "timestamp": "2025-12-20T03:42:47.049071+00:00",
        "meta_object_name": "VNREDSAT 1",
        "meta_object_id": "2013-021B",
        "meta_epoch": "2025-12-19T20:40:55.992288",
        "meta_mean_motion": 14.64932731,
        "meta_eccentricity": 0.0001229,
        "meta_inclination": 97.937,
        "meta_ra_of_asc_node": 48.8874,
        "meta_arg_of_pericenter": 80.0406,
        "meta_mean_anomaly": 280.0936,
        "meta_ephemeris_type": 0,
        "meta_classification_type": "U",
        "meta_norad_cat_id": 39160,
        "meta_element_set_no": 999,
        "meta_rev_at_epoch": 67403,
        "meta_bstar": 0.00010533,
        "meta_mean_motion_dot": 5.18e-06,
        "meta_mean_motion_ddot": 0,
        "tle_line1": "1 39160U 13021B   25353.86175917  .00000518  00000+0  10533-3 0  9996",
        "tle_line2": "2 39160  97.9370  48.8874 0001229  80.0406 280.0936 14.64932731674035"
      },
      "geometry": {
        "type": "Point",
        "coordinates": [
          -102.18899246272018,
          73.77164684241565
        ]
      }
    }
  ]
}